[
  {
    "id": 1,
    "code": "envocc001",
    "name_th": "ผู้บริหาร กระทรวงสาธารณสุข",
    "name_eng": "ENG_ผู้บริหารกรทรวงสาธารณสุข",
    "department": 21002,
    "province": 12,
    "health_region": 4
  },
  {
    "id": 2,
    "code": "IA0041129",
    "name_th": "กองตรวจราชการ",
    "name_eng": "ENG_กองตรวจราชการ",
    "department": 21002,
    "province": 12,
    "health_region": 4
  },
  {
    "id": 3,
    "code": "envocc002",
    "name_th": "กองตรวจราชการ เขตสุขภาพที่ 1",
    "name_eng": "ENG_กองตรวจราชการ เขตสุขภาพที่ 1",
    "department": 21002,
    "province": 12,
    "health_region": 4
  },
  {
    "id": 4,
    "code": "envocc003",
    "name_th": "กองตรวจราชการ เขตสุขภาพที่ 2",
    "name_eng": "ENG_กองตรวจราชการ เขตสุขภาพที่ 2",
    "department": 21002,
    "province": 12,
    "health_region": 4
  },
  {
    "id": 5,
    "code": "envocc004",
    "name_th": "กองตรวจราชการ เขตสุขภาพที่ 3",
    "name_eng": "ENG_กองตรวจราชการ เขตสุขภาพที่ 3",
    "department": 21002,
    "province": 12,
    "health_region": 4
  },
  {
    "id": 6,
    "code": "envocc005",
    "name_th": "กองตรวจราชการ เขตสุขภาพที่ 4",
    "name_eng": "ENG_กองตรวจราชการ เขตสุขภาพที่ 4",
    "department": 21002,
    "province": 12,
    "health_region": 4
  },
  {
    "id": 7,
    "code": "envocc006",
    "name_th": "กองตรวจราชการ เขตสุขภาพที่ 5",
    "name_eng": "ENG_กองตรวจราชการ เขตสุขภาพที่ 5",
    "department": 21002,
    "province": 12,
    "health_region": 4
  },
  {
    "id": 8,
    "code": "envocc007",
    "name_th": "กองตรวจราชการ เขตสุขภาพที่ 6",
    "name_eng": "ENG_กองตรวจราชการ เขตสุขภาพที่ 6",
    "department": 21002,
    "province": 12,
    "health_region": 4
  },
  {
    "id": 9,
    "code": "envocc008",
    "name_th": "กองตรวจราชการ เขตสุขภาพที่ 7",
    "name_eng": "ENG_กองตรวจราชการ เขตสุขภาพที่ 7",
    "department": 21002,
    "province": 12,
    "health_region": 4
  },
  {
    "id": 10,
    "code": "envocc009",
    "name_th": "กองตรวจราชการ เขตสุขภาพที่ 8",
    "name_eng": "ENG_กองตรวจราชการ เขตสุขภาพที่ 8",
    "department": 21002,
    "province": 12,
    "health_region": 4
  },
  {
    "id": 11,
    "code": "envocc010",
    "name_th": "กองตรวจราชการ เขตสุขภาพที่ 9",
    "name_eng": "ENG_กองตรวจราชการ เขตสุขภาพที่ 9",
    "department": 21002,
    "province": 12,
    "health_region": 4
  },
  {
    "id": 12,
    "code": "envocc011",
    "name_th": "กองตรวจราชการ เขตสุขภาพที่ 10",
    "name_eng": "ENG_กองตรวจราชการ เขตสุขภาพที่ 10",
    "department": 21002,
    "province": 12,
    "health_region": 4
  },
  {
    "id": 13,
    "code": "envocc012",
    "name_th": "กองตรวจราชการ เขตสุขภาพที่ 11",
    "name_eng": "ENG_กองตรวจราชการ เขตสุขภาพที่ 11",
    "department": 21002,
    "province": 12,
    "health_region": 4
  },
  {
    "id": 14,
    "code": "envocc013",
    "name_th": "กองตรวจราชการ เขตสุขภาพที่ 12",
    "name_eng": "ENG_กองตรวจราชการ เขตสุขภาพที่ 12",
    "department": 21002,
    "province": 12,
    "health_region": 4
  },
  {
    "id": 15,
    "code": "envocc014",
    "name_th": "กองตรวจราชการ เขตสุขภาพที่ 13",
    "name_eng": "ENG_กองตรวจราชการ เขตสุขภาพที่ 13",
    "department": 21002,
    "province": 12,
    "health_region": 4
  },
  {
    "id": 16,
    "code": "IA0041140",
    "name_th": "กองสาธารณสุขฉุกเฉิน",
    "name_eng": "ENG_กองสาธารณสุขฉุกเฉิน (กธฉ.)",
    "department": 21002,
    "province": 12,
    "health_region": 4
  },
  {
    "id": 17,
    "code": "AA0000001",
    "name_th": "สำนักงานสาธารณสุขจังหวัดสมุทรปราการ",
    "name_eng": "Samut Prakan Provincial  Pubic Health Office",
    "department": 21002,
    "province": 11,
    "health_region": 6
  },
  {
    "id": 18,
    "code": "AA0000002",
    "name_th": "สำนักงานสาธารณสุขจังหวัดนนทบุรี",
    "name_eng": "Nonthaburi Provincial  Pubic Health Office",
    "department": 21002,
    "province": 12,
    "health_region": 4
  },
  {
    "id": 19,
    "code": "AA0000003",
    "name_th": "สำนักงานสาธารณสุขจังหวัดปทุมธานี",
    "name_eng": "Pathum Thani Provincial  Pubic Health Office",
    "department": 21002,
    "province": 13,
    "health_region": 4
  },
  {
    "id": 20,
    "code": "AA0000004",
    "name_th": "สำนักงานสาธารณสุขจังหวัดพระนครศรีอยุธยา",
    "name_eng": "Phra Nakhon Si Ayutthaya Provincial  Pubic Health Office",
    "department": 21002,
    "province": 14,
    "health_region": 4
  },
  {
    "id": 21,
    "code": "AA0000005",
    "name_th": "สำนักงานสาธารณสุขจังหวัดอ่างทอง",
    "name_eng": "Ang Thong Provincial  Pubic Health Office",
    "department": 21002,
    "province": 15,
    "health_region": 4
  },
  {
    "id": 22,
    "code": "AA0000006",
    "name_th": "สำนักงานสาธารณสุขจังหวัดลพบุรี",
    "name_eng": "Lopburi Provincial  Pubic Health Office",
    "department": 21002,
    "province": 16,
    "health_region": 4
  },
  {
    "id": 23,
    "code": "AA0000007",
    "name_th": "สำนักงานสาธารณสุขจังหวัดสิงห์บุรี",
    "name_eng": "Sing Buri Provincial  Pubic Health Office",
    "department": 21002,
    "province": 17,
    "health_region": 4
  },
  {
    "id": 24,
    "code": "AA0000008",
    "name_th": "สำนักงานสาธารณสุขจังหวัดชัยนาท",
    "name_eng": "Chainat Provincial  Pubic Health Office",
    "department": 21002,
    "province": 18,
    "health_region": 3
  },
  {
    "id": 25,
    "code": "AA0000009",
    "name_th": "สำนักงานสาธารณสุขจังหวัดสระบุรี",
    "name_eng": "Saraburi Provincial  Pubic Health Office",
    "department": 21002,
    "province": 19,
    "health_region": 4
  },
  {
    "id": 26,
    "code": "AA0000010",
    "name_th": "สำนักงานสาธารณสุขจังหวัดชลบุรี",
    "name_eng": "Chonburi Provincial  Pubic Health Office",
    "department": 21002,
    "province": 20,
    "health_region": 6
  },
  {
    "id": 27,
    "code": "AA0000011",
    "name_th": "สำนักงานสาธารณสุขจังหวัดระยอง",
    "name_eng": "Ranong Provincial  Pubic Health Office",
    "department": 21002,
    "province": 21,
    "health_region": 6
  },
  {
    "id": 28,
    "code": "AA0000012",
    "name_th": "สำนักงานสาธารณสุขจังหวัดจันทบุรี",
    "name_eng": "Chanthaburi Provincial  Pubic Health Office",
    "department": 21002,
    "province": 22,
    "health_region": 6
  },
  {
    "id": 29,
    "code": "AA0000013",
    "name_th": "สำนักงานสาธารณสุขจังหวัดตราด",
    "name_eng": "Trat  Provincial  Pubic Health Office",
    "department": 21002,
    "province": 23,
    "health_region": 6
  },
  {
    "id": 30,
    "code": "AA0000014",
    "name_th": "สำนักงานสาธารณสุขจังหวัดฉะเชิงเทรา",
    "name_eng": "Chachoengsao Provincial  Pubic Health Office",
    "department": 21002,
    "province": 24,
    "health_region": 6
  },
  {
    "id": 31,
    "code": "AA0000015",
    "name_th": "สำนักงานสาธารณสุขจังหวัดปราจีนบุรี",
    "name_eng": "Prachinburi Provincial  Pubic Health Office",
    "department": 21002,
    "province": 25,
    "health_region": 6
  },
  {
    "id": 32,
    "code": "AA0000016",
    "name_th": "สำนักงานสาธารณสุขจังหวัดนครนายก",
    "name_eng": "Nakhon Nayok Provincial  Pubic Health Office",
    "department": 21002,
    "province": 26,
    "health_region": 4
  },
  {
    "id": 33,
    "code": "AA0000017",
    "name_th": "สำนักงานสาธารณสุขจังหวัดสระแก้ว",
    "name_eng": "Sa Kaeo Provincial  Pubic Health Office",
    "department": 21002,
    "province": 27,
    "health_region": 6
  },
  {
    "id": 34,
    "code": "AA0000018",
    "name_th": "สำนักงานสาธารณสุขจังหวัดนครราชสีมา",
    "name_eng": "Nakhon Ratchasima Provincial  Pubic Health Office",
    "department": 21002,
    "province": 30,
    "health_region": 9
  },
  {
    "id": 35,
    "code": "AA0000019",
    "name_th": "สำนักงานสาธารณสุขจังหวัดบุรีรัมย์",
    "name_eng": "Buriram Provincial  Pubic Health Office",
    "department": 21002,
    "province": 31,
    "health_region": 9
  },
  {
    "id": 36,
    "code": "AA0000020",
    "name_th": "สำนักงานสาธารณสุขจังหวัดสุรินทร์",
    "name_eng": "Surin Provincial  Pubic Health Office",
    "department": 21002,
    "province": 32,
    "health_region": 9
  },
  {
    "id": 37,
    "code": "AA0000021",
    "name_th": "สำนักงานสาธารณสุขจังหวัดศรีสะเกษ",
    "name_eng": "Sisaket Provincial  Pubic Health Office",
    "department": 21002,
    "province": 33,
    "health_region": 10
  },
  {
    "id": 38,
    "code": "AA0000022",
    "name_th": "สำนักงานสาธารณสุขจังหวัดอุบลราชธานี",
    "name_eng": "Ubon Ratchathani Provincial  Pubic Health Office",
    "department": 21002,
    "province": 34,
    "health_region": 10
  },
  {
    "id": 39,
    "code": "AA0000023",
    "name_th": "สำนักงานสาธารณสุขจังหวัดยโสธร",
    "name_eng": "Yasothon Provincial  Pubic Health Office",
    "department": 21002,
    "province": 35,
    "health_region": 10
  },
  {
    "id": 40,
    "code": "AA0000024",
    "name_th": "สำนักงานสาธารณสุขจังหวัดชัยภูมิ",
    "name_eng": "Chaiyaphum Provincial  Pubic Health Office",
    "department": 21002,
    "province": 36,
    "health_region": 9
  },
  {
    "id": 41,
    "code": "AA0000025",
    "name_th": "สำนักงานสาธารณสุขจังหวัดอำนาจเจริญ",
    "name_eng": "Amnat Charoen Provincial  Pubic Health Office",
    "department": 21002,
    "province": 37,
    "health_region": 10
  },
  {
    "id": 42,
    "code": "AA0024683",
    "name_th": "สำนักงานสาธารณสุขจังหวัดบึงกาฬ",
    "name_eng": "Bueng Kan Provincial  Pubic Health Office",
    "department": 21002,
    "province": 38,
    "health_region": 8
  },
  {
    "id": 43,
    "code": "AA0000026",
    "name_th": "สำนักงานสาธารณสุขจังหวัดหนองบัวลำภู",
    "name_eng": "Nong Bua Lamphu Provincial  Pubic Health Office",
    "department": 21002,
    "province": 39,
    "health_region": 8
  },
  {
    "id": 44,
    "code": "AA0000027",
    "name_th": "สำนักงานสาธารณสุขจังหวัดขอนแก่น",
    "name_eng": "Khon Kaen Provincial  Pubic Health Office",
    "department": 21002,
    "province": 40,
    "health_region": 7
  },
  {
    "id": 45,
    "code": "AA0000028",
    "name_th": "สำนักงานสาธารณสุขจังหวัดอุดรธานี",
    "name_eng": "Udon Thani Provincial  Pubic Health Office",
    "department": 21002,
    "province": 41,
    "health_region": 8
  },
  {
    "id": 46,
    "code": "AA0000029",
    "name_th": "สำนักงานสาธารณสุขจังหวัดเลย",
    "name_eng": "Loei Provincial  Pubic Health Office",
    "department": 21002,
    "province": 42,
    "health_region": 8
  },
  {
    "id": 47,
    "code": "AA0000030",
    "name_th": "สำนักงานสาธารณสุขจังหวัดหนองคาย",
    "name_eng": "Nong Khai Provincial  Pubic Health Office",
    "department": 21002,
    "province": 43,
    "health_region": 8
  },
  {
    "id": 48,
    "code": "AA0000031",
    "name_th": "สำนักงานสาธารณสุขจังหวัดมหาสารคาม",
    "name_eng": "Maha Sarakham Provincial  Pubic Health Office",
    "department": 21002,
    "province": 44,
    "health_region": 7
  },
  {
    "id": 49,
    "code": "AA0000032",
    "name_th": "สำนักงานสาธารณสุขจังหวัดร้อยเอ็ด",
    "name_eng": "Roi Et Provincial  Pubic Health Office",
    "department": 21002,
    "province": 45,
    "health_region": 7
  },
  {
    "id": 50,
    "code": "AA0000033",
    "name_th": "สำนักงานสาธารณสุขจังหวัดกาฬสินธุ์",
    "name_eng": "Kalasin Provincial  Pubic Health Office",
    "department": 21002,
    "province": 46,
    "health_region": 7
  },
  {
    "id": 51,
    "code": "AA0000034",
    "name_th": "สำนักงานสาธารณสุขจังหวัดสกลนคร",
    "name_eng": "Sakon Nakhon Provincial  Pubic Health Office",
    "department": 21002,
    "province": 47,
    "health_region": 8
  },
  {
    "id": 52,
    "code": "AA0000035",
    "name_th": "สำนักงานสาธารณสุขจังหวัดนครพนม",
    "name_eng": "Nakhon Phanom Provincial  Pubic Health Office",
    "department": 21002,
    "province": 48,
    "health_region": 8
  },
  {
    "id": 53,
    "code": "AA0000036",
    "name_th": "สำนักงานสาธารณสุขจังหวัดมุกดาหาร",
    "name_eng": "Mukdahan Provincial  Pubic Health Office",
    "department": 21002,
    "province": 49,
    "health_region": 10
  },
  {
    "id": 54,
    "code": "AA0000037",
    "name_th": "สำนักงานสาธารณสุขจังหวัดเชียงใหม่",
    "name_eng": "Chiang Mai Provincial  Pubic Health Office",
    "department": 21002,
    "province": 50,
    "health_region": 1
  },
  {
    "id": 55,
    "code": "AA0000038",
    "name_th": "สำนักงานสาธารณสุขจังหวัดลำพูน",
    "name_eng": "Lamphun Provincial  Pubic Health Office",
    "department": 21002,
    "province": 51,
    "health_region": 1
  },
  {
    "id": 56,
    "code": "AA0000039",
    "name_th": "สำนักงานสาธารณสุขจังหวัดลำปาง",
    "name_eng": "Lampang Provincial  Pubic Health Office",
    "department": 21002,
    "province": 52,
    "health_region": 1
  },
  {
    "id": 57,
    "code": "AA0000040",
    "name_th": "สำนักงานสาธารณสุขจังหวัดอุตรดิตถ์",
    "name_eng": "Uttaradit Provincial  Pubic Health Office",
    "department": 21002,
    "province": 53,
    "health_region": 2
  },
  {
    "id": 58,
    "code": "AA0000041",
    "name_th": "สำนักงานสาธารณสุขจังหวัดแพร่",
    "name_eng": "Phrae Provincial  Pubic Health Office",
    "department": 21002,
    "province": 54,
    "health_region": 1
  },
  {
    "id": 59,
    "code": "AA0000042",
    "name_th": "สำนักงานสาธารณสุขจังหวัดน่าน",
    "name_eng": "Nan Provincial  Pubic Health Office",
    "department": 21002,
    "province": 55,
    "health_region": 1
  },
  {
    "id": 60,
    "code": "AA0000043",
    "name_th": "สำนักงานสาธารณสุขจังหวัดพะเยา",
    "name_eng": "Phayao Provincial  Pubic Health Office",
    "department": 21002,
    "province": 56,
    "health_region": 1
  },
  {
    "id": 61,
    "code": "AA0000044",
    "name_th": "สำนักงานสาธารณสุขจังหวัดเชียงราย",
    "name_eng": "Chiang Rai Provincial  Pubic Health Office",
    "department": 21002,
    "province": 57,
    "health_region": 1
  },
  {
    "id": 62,
    "code": "AA0000045",
    "name_th": "สำนักงานสาธารณสุขจังหวัดแม่ฮ่องสอน",
    "name_eng": "Mae Hong Son Provincial  Pubic Health Office",
    "department": 21002,
    "province": 58,
    "health_region": 1
  },
  {
    "id": 63,
    "code": "AA0000046",
    "name_th": "สำนักงานสาธารณสุขจังหวัดนครสวรรค์",
    "name_eng": "Nakhon Sawan Provincial  Pubic Health Office",
    "department": 21002,
    "province": 60,
    "health_region": 3
  },
  {
    "id": 64,
    "code": "AA0000047",
    "name_th": "สำนักงานสาธารณสุขจังหวัดอุทัยธานี",
    "name_eng": "Uthai Thani Provincial  Pubic Health Office",
    "department": 21002,
    "province": 61,
    "health_region": 3
  },
  {
    "id": 65,
    "code": "AA0000048",
    "name_th": "สำนักงานสาธารณสุขจังหวัดกำแพงเพชร",
    "name_eng": "Kamphaeng Phet Provincial  Pubic Health Office",
    "department": 21002,
    "province": 62,
    "health_region": 3
  },
  {
    "id": 66,
    "code": "AA0000049",
    "name_th": "สำนักงานสาธารณสุขจังหวัดตาก",
    "name_eng": "Tak  Provincial  Pubic Health Office",
    "department": 21002,
    "province": 63,
    "health_region": 2
  },
  {
    "id": 67,
    "code": "AA0000050",
    "name_th": "สำนักงานสาธารณสุขจังหวัดสุโขทัย",
    "name_eng": "Sukhothai Provincial  Pubic Health Office",
    "department": 21002,
    "province": 64,
    "health_region": 2
  },
  {
    "id": 68,
    "code": "AA0000051",
    "name_th": "สำนักงานสาธารณสุขจังหวัดพิษณุโลก",
    "name_eng": "Phitsanulok Provincial  Pubic Health Office",
    "department": 21002,
    "province": 65,
    "health_region": 2
  },
  {
    "id": 69,
    "code": "AA0000052",
    "name_th": "สำนักงานสาธารณสุขจังหวัดพิจิตร",
    "name_eng": "Phichit Provincial  Pubic Health Office",
    "department": 21002,
    "province": 66,
    "health_region": 3
  },
  {
    "id": 70,
    "code": "AA0000053",
    "name_th": "สำนักงานสาธารณสุขจังหวัดเพชรบูรณ์",
    "name_eng": "Phetchabun Provincial  Pubic Health Office",
    "department": 21002,
    "province": 67,
    "health_region": 2
  },
  {
    "id": 71,
    "code": "AA0000054",
    "name_th": "สำนักงานสาธารณสุขจังหวัดราชบุรี",
    "name_eng": "Ratchaburi Provincial  Pubic Health Office",
    "department": 21002,
    "province": 70,
    "health_region": 5
  },
  {
    "id": 72,
    "code": "AA0000055",
    "name_th": "สำนักงานสาธารณสุขจังหวัดกาญจนบุรี",
    "name_eng": "Kanchanaburi Provincial  Pubic Health Office",
    "department": 21002,
    "province": 71,
    "health_region": 5
  },
  {
    "id": 73,
    "code": "AA0000056",
    "name_th": "สำนักงานสาธารณสุขจังหวัดสุพรรณบุรี",
    "name_eng": "Suphan Buri Provincial  Pubic Health Office",
    "department": 21002,
    "province": 72,
    "health_region": 5
  },
  {
    "id": 74,
    "code": "AA0000057",
    "name_th": "สำนักงานสาธารณสุขจังหวัดนครปฐม",
    "name_eng": "Nakhon Pathom  Provincial  Pubic Health Office",
    "department": 21002,
    "province": 73,
    "health_region": 5
  },
  {
    "id": 75,
    "code": "AA0000058",
    "name_th": "สำนักงานสาธารณสุขจังหวัดสมุทรสาคร",
    "name_eng": "Samut Sakhon Provincial  Pubic Health Office",
    "department": 21002,
    "province": 74,
    "health_region": 5
  },
  {
    "id": 76,
    "code": "AA0000059",
    "name_th": "สำนักงานสาธารณสุขจังหวัดสมุทรสงคราม",
    "name_eng": "Samut Songkhram Provincial  Pubic Health Office",
    "department": 21002,
    "province": 75,
    "health_region": 5
  },
  {
    "id": 77,
    "code": "AA0000060",
    "name_th": "สำนักงานสาธารณสุขจังหวัดเพชรบุรี",
    "name_eng": "Phetchaburi Provincial  Pubic Health Office",
    "department": 21002,
    "province": 76,
    "health_region": 5
  },
  {
    "id": 78,
    "code": "AA0000061",
    "name_th": "สำนักงานสาธารณสุขจังหวัดประจวบคีรีขันธ์",
    "name_eng": "Prachuap Khiri Khan Provincial  Pubic Health Office",
    "department": 21002,
    "province": 77,
    "health_region": 5
  },
  {
    "id": 79,
    "code": "AA0000062",
    "name_th": "สำนักงานสาธารณสุขจังหวัดนครศรีธรรมราช",
    "name_eng": "Nakhon Si Thammarat Provincial  Pubic Health Office",
    "department": 21002,
    "province": 80,
    "health_region": 11
  },
  {
    "id": 80,
    "code": "AA0000063",
    "name_th": "สำนักงานสาธารณสุขจังหวัดกระบี่",
    "name_eng": "Krabi Provincial  Pubic Health Office",
    "department": 21002,
    "province": 81,
    "health_region": 11
  },
  {
    "id": 81,
    "code": "AA0000064",
    "name_th": "สำนักงานสาธารณสุขจังหวัดพังงา",
    "name_eng": "Phang Nga Provincial  Pubic Health Office",
    "department": 21002,
    "province": 82,
    "health_region": 11
  },
  {
    "id": 82,
    "code": "AA0000065",
    "name_th": "สำนักงานสาธารณสุขจังหวัดภูเก็ต",
    "name_eng": "Phuket Provincial  Pubic Health Office",
    "department": 21002,
    "province": 83,
    "health_region": 11
  },
  {
    "id": 83,
    "code": "AA0000066",
    "name_th": "สำนักงานสาธารณสุขจังหวัดสุราษฎร์ธานี",
    "name_eng": "Surat Thani Provincial  Pubic Health Office",
    "department": 21002,
    "province": 84,
    "health_region": 11
  },
  {
    "id": 84,
    "code": "AA0000067",
    "name_th": "สำนักงานสาธารณสุขจังหวัดระนอง",
    "name_eng": "Ranong Provincial  Pubic Health Office",
    "department": 21002,
    "province": 85,
    "health_region": 11
  },
  {
    "id": 85,
    "code": "AA0000068",
    "name_th": "สำนักงานสาธารณสุขจังหวัดชุมพร",
    "name_eng": "Chumphon Provincial  Pubic Health Office",
    "department": 21002,
    "province": 86,
    "health_region": 11
  },
  {
    "id": 86,
    "code": "AA0000069",
    "name_th": "สำนักงานสาธารณสุขจังหวัดสงขลา",
    "name_eng": "Songkhla Provincial  Pubic Health Office",
    "department": 21002,
    "province": 90,
    "health_region": 12
  },
  {
    "id": 87,
    "code": "AA0000070",
    "name_th": "สำนักงานสาธารณสุขจังหวัดสตูล",
    "name_eng": "Satun Provincial  Pubic Health Office",
    "department": 21002,
    "province": 91,
    "health_region": 12
  },
  {
    "id": 88,
    "code": "AA0000071",
    "name_th": "สำนักงานสาธารณสุขจังหวัดตรัง",
    "name_eng": "Trang Provincial  Pubic Health Office",
    "department": 21002,
    "province": 92,
    "health_region": 12
  },
  {
    "id": 89,
    "code": "AA0000072",
    "name_th": "สำนักงานสาธารณสุขจังหวัดพัทลุง",
    "name_eng": "Phatthalung Provincial  Pubic Health Office",
    "department": 21002,
    "province": 93,
    "health_region": 12
  },
  {
    "id": 90,
    "code": "AA0000073",
    "name_th": "สำนักงานสาธารณสุขจังหวัดปัตตานี",
    "name_eng": "Pattani Provincial  Pubic Health Office",
    "department": 21002,
    "province": 94,
    "health_region": 12
  },
  {
    "id": 91,
    "code": "AA0000074",
    "name_th": "สำนักงานสาธารณสุขจังหวัดยะลา",
    "name_eng": "Yala Provincial  Pubic Health Office",
    "department": 21002,
    "province": 95,
    "health_region": 12
  },
  {
    "id": 92,
    "code": "AA0000075",
    "name_th": "สำนักงานสาธารณสุขจังหวัดนราธิวาส",
    "name_eng": "Narathiwat Provincial  Pubic Health Office",
    "department": 21002,
    "province": 96,
    "health_region": 12
  },
  {
    "id": 93,
    "code": "envocc015",
    "name_th": "ผู้บริหาร  กรมการแพทย์",
    "name_eng": "ENG_ผู้บริหาร  กรมการแพทย์",
    "department": 21003,
    "province": 12,
    "health_region": 4
  },
  {
    "id": 94,
    "code": "IA0041149",
    "name_th": "สำนักงานเลขานุการกรม กรมการแพทย์",
    "name_eng": "ENG_สำนักงานเลขานุการกรม กรมการแพทย์",
    "department": 21003,
    "province": 12,
    "health_region": 4
  },
  {
    "id": 95,
    "code": "IA0041146",
    "name_th": "สำนักดิจิทัลการแพทย์ กรมการแพทย์",
    "name_eng": "ENG_สำนักดิจิทัลการแพทย์ กรมการแพทย์",
    "department": 21003,
    "province": 12,
    "health_region": 4
  },
  {
    "id": 96,
    "code": "IA0041156",
    "name_th": "สำนักนิเทศระบบการแพทย์ กรมการแพทย์",
    "name_eng": "ENG_สำนักนิเทศระบบการแพทย์ กรมการแพทย์",
    "department": 21003,
    "province": 12,
    "health_region": 4
  },
  {
    "id": 97,
    "code": "IA0041152",
    "name_th": "กลุ่มตรวจสอบภายใน กรมการแพทย์",
    "name_eng": "ENG_กลุ่มตรวจสอบภายใน กรมการแพทย์",
    "department": 21003,
    "province": 12,
    "health_region": 4
  },
  {
    "id": 98,
    "code": "envocc016",
    "name_th": "ผู้บริหาร  กรมควบคุมโรค",
    "name_eng": "ENG_ผู้บริหาร  กรมควบคุมโรค",
    "department": 21004,
    "province": 12,
    "health_region": 4
  },
  {
    "id": 99,
    "code": "IA0041174",
    "name_th": "กองโรคจากการประกอบอาชีพและสิ่งแวดล้อม",
    "name_eng": "ENVOCC",
    "department": 21004,
    "province": 12,
    "health_region": 4
  },
  {
    "id": 100,
    "code": "IA0041159",
    "name_th": "กองยุทธศาสตร์และแผนงาน",
    "name_eng": "ENG_กองยุทธศาสตร์และแผนงาน",
    "department": 21004,
    "province": 12,
    "health_region": 4
  },
  {
    "id": 101,
    "code": "IA0041160",
    "name_th": "กองบริหารทรัพยากรบุคคล",
    "name_eng": "ENG_กองบริหารทรัพยากรบุคคล",
    "department": 21004,
    "province": 12,
    "health_region": 4
  },
  {
    "id": 102,
    "code": "IA0041163",
    "name_th": "กองกฎหมาย",
    "name_eng": "ENG_กองกฎหมาย",
    "department": 21004,
    "province": 12,
    "health_region": 4
  },
  {
    "id": 103,
    "code": "IA0041169",
    "name_th": "กองโรคติดต่อทั่วไป",
    "name_eng": "ENG_กองโรคติดต่อทั่วไป",
    "department": 21004,
    "province": 12,
    "health_region": 4
  },
  {
    "id": 104,
    "code": "EA0012252",
    "name_th": "สถาบันราชประชาสมาสัย",
    "name_eng": "RAJPRACHASAMASAI INSTITUTE",
    "department": 21004,
    "province": 12,
    "health_region": 6
  },
  {
    "id": 105,
    "code": "GA0013783",
    "name_th": "สำนักงานป้องกันควบคุมโรคที่ 1จังหวัดเชียงใหม่",
    "name_eng": "OFFICE OF DISEASE PREVENTION AND CONTROL REGION 1 Chiang Mai",
    "department": 21004,
    "province": 50,
    "health_region": 1
  },
  {
    "id": 106,
    "code": "envocc017",
    "name_th": "สํานักงานป้องกันควบคุมโรคที่ 2 จังหวัดพิษณุโลก",
    "name_eng": "ENG_สํานักงานป้องกันควบคุมโรคที่ 2 จังหวัดพิษณุโลก",
    "department": 21004,
    "province": 65,
    "health_region": 2
  },
  {
    "id": 107,
    "code": "GA0014639",
    "name_th": "สำนักงานป้องกันควบคุมโรคที่ 3 จังหวัดนครสวรรค์",
    "name_eng": "OFFICE OF DISEASE PREVENTION AND CONTROL REGION 3 Nakhon Sawan",
    "department": 21004,
    "province": 60,
    "health_region": 3
  },
  {
    "id": 108,
    "code": "GA0012265",
    "name_th": "สำนักงานป้องกันควบคุมโรคที่ 4 จังหวัดสระบุรี",
    "name_eng": "OFFICE OF DISEASE PREVENTION AND CONTROL REGION 4 Saraburi",
    "department": 21004,
    "province": 19,
    "health_region": 4
  },
  {
    "id": 109,
    "code": "GA0014637",
    "name_th": "สำนักงานป้องกันควบคุมโรคที่ 5 จังหวัดราชบุรี",
    "name_eng": "OFFICE OF DISEASE PREVENTION AND CONTROL REGION 5 Ratchaburi",
    "department": 21004,
    "province": 70,
    "health_region": 5
  },
  {
    "id": 110,
    "code": "envocc018",
    "name_th": "สํานักงานป้องกันควบคุมโรคที่ 6 ชลบุรี",
    "name_eng": "ENG_สํานักงานป้องกันควบคุมโรคที่ 6 ชลบุรี",
    "department": 21004,
    "province": 20,
    "health_region": 6
  },
  {
    "id": 111,
    "code": "GA0014638",
    "name_th": "สำนักงานป้องกันควบคุมโรคที่ 7 จังหวัดขอนแก่น",
    "name_eng": "OFFICE OF DISEASE PREVENTION AND CONTROL REGION 7 Khon Kaen",
    "department": 21004,
    "province": 40,
    "health_region": 7
  },
  {
    "id": 112,
    "code": "envocc019",
    "name_th": "สํานักงานป้องกันควบคุมโรคที่ 8 อุดรธานี",
    "name_eng": "ENG_สํานักงานป้องกันควบคุมโรคที่ 8 อุดรธานี",
    "department": 21004,
    "province": 41,
    "health_region": 8
  },
  {
    "id": 113,
    "code": "GA0014631",
    "name_th": "สำนักงานป้องกันควบคุมโรคที่ 9 จังหวัดนครราชสีมา",
    "name_eng": "OFFICE OF DISEASE PREVENTION AND CONTROL REGION 9 Nakhon Ratchasima",
    "department": 21004,
    "province": 30,
    "health_region": 9
  },
  {
    "id": 114,
    "code": "GA0014632",
    "name_th": "สำนักงานป้องกันควบคุมโรคที่ 10 จังหวัดอุบลราชธานี",
    "name_eng": "OFFICE OF DISEASE PREVENTION AND CONTROL REGION 10 Ubon Ratchathani",
    "department": 21004,
    "province": 34,
    "health_region": 10
  },
  {
    "id": 115,
    "code": "GA0013770",
    "name_th": "สำนักงานป้องกันควบคุมโรคที่11 จังหวัดนครศรีธรรมราช",
    "name_eng": "OFFICE OF DISEASE PREVENTION AND CONTROL REGION 11 Nakhon Si Thammarat",
    "department": 21004,
    "province": 80,
    "health_region": 11
  },
  {
    "id": 116,
    "code": "GA0014906",
    "name_th": "สำนักงานป้องกันควบคุมโรคที่12จังหวัดสงขลา",
    "name_eng": "OFFICE OF DISEASE PREVENTION AND CONTROL REGION 12 Songkhla",
    "department": 21004,
    "province": 90,
    "health_region": 12
  },
  {
    "id": 117,
    "code": "GA0014189",
    "name_th": "สถาบันป้องกันควบคุมโรคเขตเมือง",
    "name_eng": "URBAN INSTITUTE FOR DISEASE PREVENTION AND CONTROL",
    "department": 21004,
    "province": 10,
    "health_region": 13
  },
  {
    "id": 118,
    "code": "envocc020",
    "name_th": "ผู้บริหาร กรมอนามัย",
    "name_eng": "ENG_ผู้บริหารกรมอนามัย",
    "department": 21009,
    "province": 12,
    "health_region": 4
  },
  {
    "id": 119,
    "code": "envocc021",
    "name_th": "ศูนย์อนามัยที่ 1 เชียงใหม่",
    "name_eng": "REGIONAL HEALTH PROMOTION CENTRE 1",
    "department": 21009,
    "province": 50,
    "health_region": 1
  },
  {
    "id": 120,
    "code": "envocc022",
    "name_th": "ศูนย์อนามัยที่ 2 พิษณุโลก",
    "name_eng": "REGIONAL HEALTH PROMOTION CENTRE 2",
    "department": 21009,
    "province": 65,
    "health_region": 2
  },
  {
    "id": 121,
    "code": "envocc023",
    "name_th": "ศูนย์อนามัยที่ 3 นครสวรรค์",
    "name_eng": "REGIONAL HEALTH PROMOTION CENTRE 3",
    "department": 21009,
    "province": 60,
    "health_region": 3
  },
  {
    "id": 122,
    "code": "envocc024",
    "name_th": "ศูนย์อนามัยที่ 4 สระบุรี",
    "name_eng": "REGIONAL HEALTH PROMOTION CENTRE 4",
    "department": 21009,
    "province": 19,
    "health_region": 4
  },
  {
    "id": 123,
    "code": "envocc025",
    "name_th": "ศูนย์อนามัยที่ 5 ราชบุรี",
    "name_eng": "REGIONAL HEALTH PROMOTION CENTRE 5",
    "department": 21009,
    "province": 70,
    "health_region": 5
  },
  {
    "id": 124,
    "code": "envocc026",
    "name_th": "ศูนย์อนามัยที่ 6 ชลบุรี",
    "name_eng": "REGIONAL HEALTH PROMOTION CENTRE 6",
    "department": 21009,
    "province": 20,
    "health_region": 6
  },
  {
    "id": 125,
    "code": "envocc027",
    "name_th": "ศูนย์อนามัยที่ 7 ขอนแก่น",
    "name_eng": "REGIONAL HEALTH PROMOTION CENTRE 7",
    "department": 21009,
    "province": 40,
    "health_region": 7
  },
  {
    "id": 126,
    "code": "EA0041102",
    "name_th": "ศูนย์อนามัยที่ 8 อุดรธานี",
    "name_eng": "REGIONAL HEALTH PROMOTION CENTRE 8",
    "department": 21009,
    "province": 41,
    "health_region": 8
  },
  {
    "id": 127,
    "code": "EA0012267",
    "name_th": "ศูนย์อนามัยที่ 9 นครราชสีมา",
    "name_eng": "REGIONAL HEALTH PROMOTION CENTRE 9",
    "department": 21009,
    "province": 30,
    "health_region": 9
  },
  {
    "id": 128,
    "code": "envocc028",
    "name_th": "ศูนย์อนามัยที่ 10 อุบลราชธานี",
    "name_eng": "REGIONAL HEALTH PROMOTION CENTRE 10",
    "department": 21009,
    "province": 34,
    "health_region": 10
  },
  {
    "id": 129,
    "code": "envocc029",
    "name_th": "ศูนย์อนามัยที่ 11 นครศรีธรรมราช",
    "name_eng": "REGIONAL HEALTH PROMOTION CENTRE 11",
    "department": 21009,
    "province": 80,
    "health_region": 11
  },
  {
    "id": 130,
    "code": "envocc030",
    "name_th": "ศูนย์อนามัยที่ 12 ยะลา",
    "name_eng": "REGIONAL HEALTH PROMOTION CENTRE 12",
    "department": 21009,
    "province": 95,
    "health_region": 12
  },
  {
    "id": 131,
    "code": "EA0012243",
    "name_th": "สถาบันพัฒนาสุขภาวะเขตเมือง",
    "name_eng": "ENG_สถาบันพัฒนาสุขภาวะเขตเมือง",
    "department": 21009,
    "province": 10,
    "health_region": 1
  },
  {
    "id": 132,
    "code": "FA0011537",
    "name_th": "โรงพยาบาลกลาง",
    "name_eng": "ENG",
    "department": 21002,
    "province": 10,
    "health_region": 2
  },
  {
    "id": 133,
    "code": "EA0010662",
    "name_th": "โรงพยาบาลชลบุรี",
    "name_eng": "ENG",
    "department": 21002,
    "province": 20,
    "health_region": 3
  },
  {
    "id": 134,
    "code": "EA0010663",
    "name_th": "โรงพยาบาลระยอง",
    "name_eng": "ENG",
    "department": 21002,
    "province": 21,
    "health_region": 4
  },
  {
    "id": 135,
    "code": "EA0010685",
    "name_th": "โรงพยาบาลสมุทรปราการ",
    "name_eng": "ENG",
    "department": 21002,
    "province": 11,
    "health_region": 5
  },
  {
    "id": 136,
    "code": "EA0010699",
    "name_th": "โรงพยาบาลสมเด็จพระยุพราชสระแก้ว",
    "name_eng": "ENG",
    "department": 21002,
    "province": 27,
    "health_region": 6
  },
  {
    "id": 137,
    "code": "EA0010671",
    "name_th": "โรงพยาบาลอุดรธานี",
    "name_eng": "ENG",
    "department": 21002,
    "province": 41,
    "health_region": 7
  },
  {
    "id": 138,
    "code": "EA0010705",
    "name_th": "โรงพยาบาลเลย",
    "name_eng": "ENG",
    "department": 21002,
    "province": 42,
    "health_region": 8
  },
  {
    "id": 139,
    "code": "EA0011040",
    "name_th": "โรงพยาบาลบึงกาฬ",
    "name_eng": "ENG",
    "department": 21002,
    "province": 38,
    "health_region": 9
  },
  {
    "id": 140,
    "code": "EA0010666",
    "name_th": "โรงพยาบาลมหาราชนครราชสีมา",
    "name_eng": "ENG",
    "department": 21002,
    "province": 30,
    "health_region": 10
  },
  {
    "id": 141,
    "code": "EA0010669",
    "name_th": "โรงพยาบาลสรรพสิทธิประสงค์",
    "name_eng": "ENG",
    "department": 21002,
    "province": 34,
    "health_region": 11
  },
  {
    "id": 142,
    "code": "EA0010700",
    "name_th": "โรงพยาบาลศรีสะเกษ",
    "name_eng": "ENG",
    "department": 21002,
    "province": 33,
    "health_region": 12
  },
  {
    "id": 143,
    "code": "EA0010680",
    "name_th": "โรงพยาบาลมหาราชนครศรีธรรมราช",
    "name_eng": "ENG",
    "department": 21002,
    "province": 80,
    "health_region": 13
  },
  {
    "id": 144,
    "code": "EA0010744",
    "name_th": "โรงพยาบาลชุมพรเขตรอุดมศักดิ์",
    "name_eng": "ENG",
    "department": 21002,
    "province": 86,
    "health_region": 1
  },
  {
    "id": 145,
    "code": "EA0010739",
    "name_th": "โรงพยาบาลพังงา",
    "name_eng": "ENG",
    "department": 21002,
    "province": 82,
    "health_region": 2
  },
  {
    "id": 146,
    "code": "EA0010745",
    "name_th": "โรงพยาบาลสงขลา",
    "name_eng": "ENG",
    "department": 21002,
    "province": 90,
    "health_region": 3
  },
  {
    "id": 147,
    "code": "EA0010683",
    "name_th": "โรงพยาบาลตรัง",
    "name_eng": "ENG",
    "department": 21002,
    "province": 92,
    "health_region": 4
  },
  {
    "id": 148,
    "code": "EA0010748",
    "name_th": "โรงพยาบาลปัตตานี",
    "name_eng": "ENG",
    "department": 21002,
    "province": 94,
    "health_region": 5
  },
  {
    "id": 9999,
    "code": "99999999",
    "name_th": "ไม่ใช้",
    "name_eng": "ENG",
    "department": 99999,
    "province": 999,
    "health_region": 9
  }
]
